# Made by eph2tle, compiled Feb 20 2023 22:13:04
# Run at Wed Mar  1 22:13:40 2023
#
# No updates   (archival TLEs)
#
#    The following TLEs (Two-Line Elements) were generated by fitting
# a numerically-integrated ephemeris,  based on the orbit given below,
# to the SDP4/SGP4 models.  Each TLE is good for the interval between
# its epoch and the epoch of the subsequent TLE (usually one day).
# The maximum deviation between the numerically integrated ephemerides
# and the TLE-based ephemeris, in kilometers,  is given for each TLE
# as the "worst residual".
#
#    This fitting is done using the 'eph2tle' code packaged with Find_Orb.
# The code has details on how the TLEs were computed :
#
#    https://github.com/Bill-Gray/find_orb/eph2tle.cpp
#
#    Be warned:  the error given is that between the numerically
# integrated ephems and the TLE model.  There will usually be at
# least some additional difference between the ephems and the actual
# motion of the satellite,  especially if the ephemerides are based
# on a short arc.  If the following orbital elements say something
# like "[based on] 10 observations 2015 Jan. 1-13",  and the TLEs
# are for 2015 May,  the extrapolation may be tenuous at best.  If
# your application requires a specific level of accuracy,  you may
# want to contact me;  I can give you some idea as to the fit of the
# underlying data (and possibly TLEs based on newer data).
#
#   You can usually find the underlying observational data,  and the
# fitted orbit,  residuals,  ephemerides,  and sometimes some comments
# about the object,  among the pages listed at
#
#    https://www.projectpluto.com/pluto/mpecs/pseudo.htm
#
#    WARNING:  for this object,  "normal" TLEs cannot be fitted.  (This
# usually means an object with an hyperbolic or nearly-parabolic orbit.)
# For this and similar cases,   an alternative model is used,  in which
# most of the traditional TLE data is replaced by six signed 8-digit hex
# numbers.  These six numbers are a state vector,  numerically integrated
# using a simplified force model.  This is necessary for objects at L2 or
# L1,  and sometimes for objects in high orbits where the SDP4/SGP4 model
# fails.  Some documentation is in 'get_el.cpp' in the source code at
# https://www.github.com/Bill-Gray/sat_code ; look for 'hex' in that file,
# with the actual integration done in 'sdp4.cpp'.  But be aware:  it's my
# own extension,  doesn't work with other code,  and is therefore used
# only when necessary.
#
#    Also,  if you use a TLE outside the "correct" time range (between
# its MJD and that of the next TLE),  all bets are off.  I've carefully
# computed and minimized the worst error over the "correct" time frame,
# but the ephemeris may (or may not) diverge wildly outside of it.
#
# Ephem range: 59945.000000 60310.000000 1.000000
# Created Wed Mar  1 22:13:32 2023
# Ephemeris start:  1 Jan 2023  0:00:00
# Ephemeris end:    1 Jan 2024  0:00:00
# Times are all TDT
# Positions/velocities are in equatorial J2000
# Orbital elements:  2019-040A = NORAD 44432 = Spektr-RG
#    Perihelion 2023 Jan 29.536619 +/- 0.0002 TT = 12:52:43.9 (JD 2459974.036619)
# Epoch 2023 Feb 11.0 TT; AMR 0.015603 +/- 0.000272 m^2/kg   Earth MOID: 0.0098
# M  11.695750479 +/- 0.00018         (J2000 ecliptic)             Find_Orb
# n   0.938409150 +/- 6.22e-8         Peri.  143.774800 +/- 0.00027
# a   1.033255898 +/- 4.56e-8         Node   345.096498 +/- 0.00011
# e   0.03620477 +/- 3.47e-8          Incl.    0.316968 +/- 0.0000006
# P   1.05/383.62d           H 27.76  G  0.15   U  1.6
# q 0.995847102 +/- 1.52e-8    Q 1.070664694 +/- 8.2e-8
# 89 of 302 observations 2022 Nov. 27-2023 Mar. 1; mean residual 0".538
#
# After 2023 Mar 12 :
#
# Orbital elements:  2019-040A = NORAD 44432 = Spektr-RG
#    Perihelion 2023 Mar 8.89640175 +/- 0.000876 TT = 21:30:49.111 (JD 2460012.39640175)
# Epoch 2023 Mar 29.0 TT; AMR 0.016506 +/- 0.00415 m^2/kg   Earth MOID: 0.0085
# M  18.32884562933 +/- 0.0008        (J2000 ecliptic)             Find_Orb
# n   0.91171965345 +/- 4.52e-6       Peri.  194.70213744 +/- 0.0025
# a   1.05332365654 +/- 3.48e-6       Node   332.79090799 +/- 0.0021
# e   0.0472624580 +/- 2.68e-6        Incl.    0.23980834 +/- 0.000031
# P   1.08/394.85d           H 28.10  G  0.15   U  4.5
# q 1.00354099144 +/- 5.25e-7    Q 1.10310632165 +/- 6.46e-6
# 50 of 121 observations 2023 Mar. 13-29; mean residual 0".382
#
# After 2023 Jul 26:
#
# Orbital elements:  2019-040A = NORAD 44432 = Spektr-RG
#    Perihelion 2023 Oct 8.020635 +/- 0.00332 TT =  0:29:42.8 (JD 2460225.520635)
# Epoch 2023 Aug 19.0 TT; AMR 0.049823 +/- 0.00419 m^2/kg   Earth MOID: 0.0095
# M 313.198928471 +/- 0.0032          (J2000 ecliptic)             Find_Orb
# n   0.935635302 +/- 3.79e-6         Peri.  211.630835 +/- 0.0030
# a   1.035297064 +/- 2.79e-6         Node   162.025788 +/- 0.00028
# e   0.01924663 +/- 1.98e-6          Incl.    0.330008 +/- 0.000024
# P   1.05/384.76d           H 25.54  G  0.15   U  4.4
# q 1.015371085 +/- 7.49e-7    Q 1.055223044 +/- 4.89e-6
# 32 of 175 observations 2023 July 28-Sept. 10; mean residual 0".540
#
# After 2023 Sep 08 :
#
# Orbital elements:  2019-040A = NORAD 44432 = Spektr-RG
#    Perihelion 2023 Oct 17.986823 +/- 0.000889 TT = 23:41:01.5 (JD 2460235.486823)
# Epoch 2023 Sep 22.0 TT; AMR 0.017747 +/- 0.00187 m^2/kg   Earth MOID: 0.0085
# M 336.253764920 +/- 0.0008          (J2000 ecliptic)             Find_Orb
# n   0.913779843 +/- 2.79e-6         Peri.  225.682116 +/- 0.0009
# a   1.051739859 +/- 2.14e-6         Node   158.349947 +/- 0.00015
# e   0.04130417 +/- 1.56e-6          Incl.    0.300347 +/- 0.000010
# P   1.08/393.96d           H 27.01  G  0.15   U  4.2
# q 1.008298608 +/- 4.15e-7    Q 1.095181110 +/- 3.88e-6
# 43 of 202 observations 2023 Sept. 10-Oct. 3; mean residual 0".286
#
# After 2023 Nov 12:
#
# Orbital elements:  2019-040A = NORAD 44432 = Spektr-RG
#    Perihelion 2023 Nov 30.58020 +/- 0.00442 TT;  Constraint: A=0.017
# Epoch 2023 Nov 17.0 TT; AMR 0.016825 +/- 1.08e-9 m^2/kg   Earth MOID: 0.0091
# M 347.37029007 +/- 0.0042           (J2000 ecliptic)             Find_Orb
# n   0.93000932 +/- 1.56e-5          Peri.    8.64399 +/- 0.0044
# a   1.03946813 +/- 1.16e-5          Node    59.35755 +/- 0.00008
# e   0.0409683 +/- 7.83e-6           Incl.    0.32939 +/- 0.00010
# P   1.060/387.086d         H 27.17  G  0.15   U  5.3
# q 0.99688279 +/- 3.03e-6    Q 1.08205347 +/- 2.03e-5
# 22 of 160 observations 2023 Nov. 12-21; mean residual 0".212
#
# 1 NoradU COSPAR   Epoch.epoch     dn/dt/2  d2n/dt2/6 BSTAR    T El# C
# 2 NoradU Inclina RAAscNode Eccent  ArgPeri MeanAno  MeanMotion Rev# C

# Worst residual: 0.38 km
# MJD 59945.000000 (2023 Jan  1  0:00)
2019-040A = NORAD 44432 = Spektr-RG
1 44432U 19040A   22365.99919926 -007XIH68 +00JQFYX2 +00HRI5ECH 18877
2 44432                          -0000JLKH -00008TWZ +0000BWUA     09

# Worst residual: 0.51 km
# MJD 59946.000000 (2023 Jan  2  0:00)
2019-040A = NORAD 44432 = Spektr-RG
1 44432U 19040A   23001.99919926 -00827TRT +00JOC7L0 +00HU7OIRH 18878
2 44432                          -0000JL87 -00008PRJ +0000ANM9     03

# Worst residual: 0.61 km
# MJD 59947.000000 (2023 Jan  3  0:00)
2019-040A = NORAD 44432 = Spektr-RG
1 44432U 19040A   23002.99919926 -0086WVOS +00JM96I1 +00HWM519H 18873
2 44432                          -0000JJ0R -00008NQA +00009CML     08

# Worst residual: 0.69 km
# MJD 59948.000000 (2023 Jan  4  0:00)
2019-040A = NORAD 44432 = Spektr-RG
1 44432U 19040A   23003.99919926 -008BL54A +00JK6G78 +00HYP550H 18877
2 44432                          -0000JEL7 -00008N5Q +0000807O     06

# Worst residual: 0.76 km
# MJD 59949.000000 (2023 Jan  5  0:00)
2019-040A = NORAD 44432 = Spektr-RG
1 44432U 19040A   23004.99919926 -008G81WB +00JI3QUN +00I0GE3GH 18873
2 44432                          -0000J7QO -00008NEG +00006MQK     02

# Worst residual: 0.84 km
# MJD 59950.000000 (2023 Jan  6  0:00)
2019-040A = NORAD 44432 = Spektr-RG
1 44432U 19040A   23005.99919926 -008KT0WG +00JG0Y7G +00I1VOCQH 18877
2 44432                          -0000IYFZ -00008NTC +000058KU     02

# Worst residual: 0.93 km
# MJD 59951.000000 (2023 Jan  7  0:00)
2019-040A = NORAD 44432 = Spektr-RG
1 44432U 19040A   23006.99919926 -008PBHC0 +00JDY3I4 +00I2YVO6H 18875
2 44432                          -0000IMSY -00008NRX +00003U4F     06

# Worst residual: 1.02 km
# MJD 59952.000000 (2023 Jan  8  0:00)
2019-040A = NORAD 44432 = Spektr-RG
1 44432U 19040A   23007.99919926 -008TQVUF +00JBVD8U +00I3PZ6BH 18878
2 44432                          -0000I91N -00008MOT +00002FRD     01

# Worst residual: 1.09 km
# MJD 59953.000000 (2023 Jan  9  0:00)
2019-040A = NORAD 44432 = Spektr-RG
1 44432U 19040A   23008.99919926 -008Y2RGQ +00J9T2V9 +00I451AUH 18874
2 44432                          -0000HTHP -00008K0G +000011V3     04

# Worst residual: 1.17 km
# MJD 59954.000000 (2023 Jan 10  0:00)
2019-040A = NORAD 44432 = Spektr-RG
1 44432U 19040A   23009.99919926 -0092AQCX +00J7RO8L +00I487KFH 18870
2 44432                          -0000HCJL -00008F9L -00000B86     03

# Worst residual: 1.26 km
# MJD 59955.000000 (2023 Jan 11  0:00)
2019-040A = NORAD 44432 = Spektr-RG
1 44432U 19040A   23010.99919926 -0096EIHB +00J5RP0X +00I3ZQ87H 18875
2 44432                          -0000GUOD -0000881S -00001N7Z     07

# Worst residual: 1.40 km
# MJD 59956.000000 (2023 Jan 12  0:00)
2019-040A = NORAD 44432 = Spektr-RG
1 44432U 19040A   23011.99919926 -009ADY78 +00J3TS0M +00I3FVUVH 18878
2 44432                          -0000GCFR -00007Y1I -00002XVF     02

# Worst residual: 1.58 km
# MJD 59957.000000 (2023 Jan 13  0:00)
2019-040A = NORAD 44432 = Spektr-RG
1 44432U 19040A   23012.99919926 -009E90YK +00J1YMFI +00I2L0YXH 18870
2 44432                          -0000FUGE -00007L00 -000046Z6     05

